[{"OBJECT_NAME":"HULIANWANG JISHU SHIYAN 4B","OBJECT_ID":"2023-212B","EPOCH":"2026-03-09T21:54:26.285472","MEAN_MOTION":13.41451244,"ECCENTRICITY":5.706e-5,"INCLINATION":49.9995,"RA_OF_ASC_NODE":347.8305,"ARG_OF_PERICENTER":162.1105,"MEAN_ANOMALY":197.9792,"EPHEMERIS_TYPE":0,"CLASSIFICATION_TYPE":"U","NORAD_CAT_ID":58692,"ELEMENT_SET_NO":999,"REV_AT_EPOCH":10792,"BSTAR":8.9569784e-5,"MEAN_MOTION_DOT":-7.8e-7,"MEAN_MOTION_DDOT":0},{"OBJECT_NAME":"THORAD AGENA D DEB","OBJECT_ID":"1970-025GL","EPOCH":"2026-03-09T05:57:07.346880","MEAN_MOTION":13.10173499,"ECCENTRICITY":0.02193959,"INCLINATION":99.8428,"RA_OF_ASC_NODE":328.7175,"ARG_OF_PERICENTER":250.5753,"MEAN_ANOMALY":236.9125,"EPHEMERIS_TYPE":0,"CLASSIFICATION_TYPE":"U","NORAD_CAT_ID":4950,"ELEMENT_SET_NO":999,"REV_AT_EPOCH":67041,"BSTAR":-8.5169554e-5,"MEAN_MOTION_DOT":-7.5e-7,"MEAN_MOTION_DDOT":0}]
